SL-14 R/B               
1 20511U 90018B   24276.70999624  .00001963  00000+0  24809-3 0  9998
2 20511  82.5254 351.6662 0016833  17.6034 342.5760 14.81320201845138
HST                     
1 20580U 90037B   24276.43585777  .00017177  00000+0  76904-3 0  9992
2 20580  28.4698 345.5748 0003284 129.5775 230.5108 15.19839067693357
SL-16 R/B               
1 20625U 90046B   24276.41709574  .00000160  00000+0  10723-3 0  9994
2 20625  71.0005 316.7792 0013804   9.6544 350.4841 14.14883389774371
COSMOS 2084             
1 20663U 90055A   24276.47132933  .00009941  00000+0  72551-3 0  9994
2 20663  62.7916 314.1165 0098575 130.1160 230.8629 15.00343885857655
SL-6 R/B(2)             
1 20666U 90055D   24276.90240027  .00010750  00000+0  84512-3 0  9999
2 20666  62.7842 226.8723 0069465 154.5478 205.9068 14.99404341859679
SL-8 R/B                
1 20775U 90078B   24276.33773265  .00029630  00000+0  11340-2 0  9992
2 20775  82.9180 353.8635 0448899 306.2336  49.8151 14.65593771731994
SL-8 R/B                
1 21088U 91006B   24276.69377274  .00000265  00000+0  25067-3 0  9996
2 21088  82.9457 199.0802 0023920  61.4708 344.7644 13.77370313692078
OKEAN-3                 
1 21397U 91039A   24276.98465564  .00012800  00000+0  10349-2 0  9991
2 21397  82.5159 121.5229 0014674 310.7641  49.2309 14.99609643807621
COSMOS 2151             
1 21422U 91042A   24276.90961569  .00010539  00000+0  91756-3 0  9991
2 21422  82.4987 226.7106 0014169  32.7108 327.4989 14.96746291784894
SL-14 R/B               
1 21423U 91042B   24277.19870379  .00002075  00000+0  26404-3 0  9996
2 21423  82.4968 349.9151 0017919 153.2616 206.9526 14.81039246796756
ERS-1                   
1 21574U 91050A   24276.73524977  .00001925  00000+0  63808-3 0  9993
2 21574  98.7863 270.9117 0031491 314.7946  45.0681 14.38761125740497
ARIANE 40 R/B           
1 21610U 91050F   24277.19195115  .00002259  00000+0  69947-3 0  9994
2 21610  98.2784 335.9608 0002743 194.9144 165.1965 14.42131205743934
INTERCOSMOS 25          
1 21819U 91086A   24276.71895378  .00003064  00000+0  60382-3 0  9998
2 21819  82.5982 265.6197 1498629 162.3277 203.6361 12.09322651433394
SL-8 R/B                
1 21876U 92008B   24276.44331111  .00000340  00000+0  33414-3 0  9996
2 21876  82.9236 296.8722 0035433 154.0403 315.6717 13.75859236637462
SL-8 R/B                
1 21938U 92020B   24276.60449493  .00000274  00000+0  26899-3 0  9995
2 21938  82.9341 182.2436 0028394 320.4845  86.8505 13.75442369629227
USA 81                  
1 21949U 92023A   24276.72307307  .00001201  00000+0  44057-3 0  9997
2 21949  85.0041  73.1091 0001074  95.5860 264.5455 14.32010828 19933
COSMOS 2219             
1 22219U 92076A   24277.02424466  .00000266  00000+0  16498-3 0  9994
2 22219  71.0615  30.5630 0020526 277.8293  82.0499 14.13917694644829
SL-16 R/B               
1 22220U 92076B   24277.17363260  .00000414  00000+0  23083-3 0  9999
2 22220  71.0000 208.9378 0012742 182.0064 278.3206 14.16707179648157
COSMOS 2221             
1 22236U 92080A   24277.15436949  .00008688  00000+0  83719-3 0  9997
2 22236  82.5050  58.3327 0015959 142.2139 218.0205 14.92726264723784
SL-16 R/B               
1 22285U 92093B   24276.68866896  .00000664  00000+0  36551-3 0  9998
2 22285  71.0241  22.0818 0003918 354.2408   5.8669 14.15306384639157
COSMOS 2228             
1 22286U 92094A   24276.72100496  .00010830  00000+0  10275-2 0  9992
2 22286  82.5229  16.7188 0018232 259.5165 100.4001 14.93326003697896
SL-16 R/B               
1 22566U 93016B   24276.60775230  .00000133  00000+0  92760-4 0  9995
2 22566  71.0070 233.7118 0009065  26.4829 333.6755 14.15171439628165
COSMOS 2242             
1 22626U 93024A   24277.11698441  .00012546  00000+0  12036-2 0  9993
2 22626  82.5214  45.2520 0016266 260.2795  99.6588 14.92913996702638
SL-16 R/B               
1 22803U 93059B   24276.58878393  .00000582  00000+0  31250-3 0  9991
2 22803  70.9920  34.1340 0019390 285.4838  74.4144 14.17078943605424
ARIANE 40 R/B           
1 22830U 93061H   24276.44808785  .00001438  00000+0  54841-3 0  9999
2 22830  98.5610 342.7674 0011320  36.9364 323.2597 14.32301029619188
COSMOS 2278             
1 23087U 94023A   24276.91771685  .00000485  00000+0  27909-3 0  9999
2 23087  71.0548 188.6870 0006467 111.7403 248.4408 14.14169568570899
SL-16 R/B               
1 23088U 94023B   24276.93063337  .00000295  00000+0  17757-3 0  9999
2 23088  70.9984  88.6411 0003744 334.1947  25.8988 14.14892337572418
SL-16 R/B               
1 23343U 94074B   24277.15973441  .00002539  00000+0  35515-3 0  9995
2 23343  97.7767 316.5290 0008058 115.9540 292.8389 14.78402102610223
SL-16 R/B               
1 23405U 94077B   24277.18625621  .00000161  00000+0  10714-3 0  9997
2 23405  70.9855  11.6441 0004772 254.1788 105.8809 14.15433383542560
ARIANE 40+ R/B          
1 23561U 95021B   24276.64129983  .00001787  00000+0  59228-3 0  9998
2 23561  98.5172 342.4107 0005686 266.2460 238.0820 14.39083252543993
SL-16 R/B               
1 23705U 95058B   24276.74396104  .00000480  00000+0  27015-3 0  9998
2 23705  71.0220 198.0853 0013423 206.0888 153.9560 14.15380233493858
SL-16 R/B               
1 24298U 96051B   24277.15296700  .00000088  00000+0  74019-4 0  9998
2 24298  70.7926 200.6658 0015728 193.6656 166.4040 14.12455225448125
ORBVIEW 2 (SEASTAR)     
1 24883U 97037A   24276.89957999  .00002185  00000+0  78672-3 0  9995
2 24883  98.7919  58.5576 0002723 142.3713 217.7663 14.34779698433483
SL-16 R/B               
1 25400U 98043G   24277.12220270  .00000627  00000+0  28235-3 0  9990
2 25400  98.7531 217.9666 0011017  90.7238 269.5204 14.25824935364747
SL-16 R/B               
1 25407U 98045B   24277.15061379  .00000162  00000+0  10639-3 0  9998
2 25407  71.0118 200.3633 0005142 107.1348 253.0338 14.16050478353394
ISS (ZARYA)             
1 25544U 98067A   24277.10775935  .00058167  00000+0  10146-2 0  9999
2 25544  51.6370 140.8376 0006781  55.2533  80.6283 15.50119673475289
CZ-4B R/B               
1 25732U 99025C   24276.36715701  .00000633  00000+0  32761-3 0  9998
2 25732  98.7404 319.9198 0037992  49.6500 321.3954 14.18044439313997
OKEAN-O                 
1 25860U 99039A   24277.15019757  .00004143  00000+0  56902-3 0  9994
2 25860  98.0238 329.3002 0001032 115.0413 245.0905 14.78905852357204
SL-16 R/B               
1 25861U 99039B   24276.57229137  .00003412  00000+0  45194-3 0  9994
2 25861  98.0767 323.2970 0015914 147.8533 212.3652 14.80481235359552
DELTA 2 R/B             
1 25876U 99041E   24276.87039833  .00005004  00000+0  85573-3 0  9992
2 25876  51.7646 225.6767 0512908 248.1386 106.4257 14.09194969289232
HELIOS 1B               
1 25977U 99064A   24276.40117067  .00005342  00000+0  63348-3 0  9995
2 25977  98.2256 151.5795 0001348  37.7104 322.4204 14.84958506607522
TERRA                   
1 25994U 99068A   24277.17590269  .00002878  00000+0  60841-3 0  9998
2 25994  98.0368 337.4471 0003067  51.1590  33.4172 14.60043303318928
SL-16 R/B               
1 26070U 00006B   24276.60713437  .00000462  00000+0  25954-3 0  9992
2 26070  71.0000 117.6041 0018668 259.0588 100.8435 14.15682599274522
TITAN 4B R/B            
1 26474U 00047B   24276.82552906  .00014724  00000+0  10510-2 0  9998
2 26474  67.9925  64.8903 0051937 267.4282  92.0918 15.03566575314133
ENVISAT                 
1 27386U 02009A   24276.88813187  .00000991  00000+0  33667-3 0  9998
2 27386  98.2959 234.3022 0001310  89.4326 283.5627 14.38695320183997
IDEFIX & ARIANE 42P R/B 
1 27422U 02021B   24276.67798834  .00001914  00000+0  75288-3 0  9992
2 27422  98.5330 212.2475 0010780 290.8689  69.1339 14.30346028169231
AQUA                    
1 27424U 02022A   24277.14740991  .00007541  00000+0  15800-2 0  9994
2 27424  98.3410 227.0152 0002118  96.7062  29.3713 14.60000864192463
CZ-4B R/B               
1 27432U 02024C   24276.77624360  .00000407  00000+0  23316-3 0  9990
2 27432  98.9643 319.5642 0051196  66.9267  67.1691 14.14377422155317
MIDORI II (ADEOS-II)    
1 27597U 02056A   24276.69706750  .00001836  00000+0  74935-3 0  9992
2 27597  98.7018 223.0007 0002243  83.9504 276.1933 14.28579466135607
H-2A R/B                
1 27601U 02056E   24276.76011590  .00002001  00000+0  72569-3 0  9993
2 27601  98.2440 248.5723 0069625 281.0212 138.1624 14.33060884139195
CZ-4B R/B               
1 28059U 03049C   24276.61455922  .00003203  00000+0  75799-3 0  9992
2 28059  98.6244 242.0990 0049640  29.6610 330.7384 14.54068293110554
CZ-2C R/B               
1 28222U 04012C   24276.03291346  .00031644  00000+0  10563-2 0  9996
2 28222  97.8001 294.0235 0032699  39.5149 320.8465 15.30465929123411
SL-16 R/B               
1 28353U 04021B   24276.65915865  .00000337  00000+0  20047-3 0  9992
2 28353  70.9998 250.0103 0002799 131.8000 228.3362 14.14466508 48878
CZ-4B R/B               
1 28415U 04035C   24276.86692472  .00021493  00000+0  10321-2 0  9994
2 28415  97.4143 308.2507 0040816  11.7462 348.4715 15.18116336100283
CZ-2C R/B               
1 28480U 04046B   24276.76070375  .00001097  00000+0  42672-3 0  9992
2 28480  98.1701 213.8157 0138949 261.1916  97.3510 14.26546962 33935
ARIANE 5 R/B            
1 28499U 04049H   24277.02662754  .00006818  00000+0  78942-3 0  9998
2 28499  98.2000  57.6262 0086367 243.8303 115.4008 14.83160340 68276
CZ-2D R/B               
1 28738U 05024B   24276.92642728  .00043613  00000+0  14775-2 0  9992
2 28738  97.3684 274.2500 0010832 114.0401 246.1974 15.30381254 59113
SUZAKU (ASTRO-EII)      
1 28773U 05025A   24276.93442336  .00160845  00000+0  18766-2 0  9997
2 28773  31.3837 121.3626 0005452 355.7542   4.3071 15.60024975 63768
ALOS (DAICHI)           
1 28931U 06002A   24277.11814742  .00010054  00000+0  18110-2 0  9993
2 28931  98.0480 227.9889 0002330 106.1671 253.9790 14.66740446997168
